{"fetched_at":"2026-07-17T06:38:31.598Z","source":"https://celestrak.org/NORAD/elements/gp.php?NAME=RADARSAT&FORMAT=JSON","constellation":"radarsat-2","records":[{"OBJECT_NAME":"RADARSAT-2","OBJECT_ID":"2007-061A","EPOCH":"2026-07-16T20:17:22.703424","CLASSIFICATION_TYPE":"U","MEAN_MOTION":14.29983392,"ECCENTRICITY":0.0001317,"INCLINATION":98.5778,"RA_OF_ASC_NODE":204.3545,"ARG_OF_PERICENTER":84.2019,"MEAN_ANOMALY":275.9313,"EPHEMERIS_TYPE":0,"NORAD_CAT_ID":32382,"ELEMENT_SET_NO":999,"REV_AT_EPOCH":97019,"BSTAR":0.000017376,"MEAN_MOTION_DOT":1e-8,"MEAN_MOTION_DDOT":0}]}
